NORAD_CAT_ID,OBJECT_NAME,OBJECT_TYPE,EPOCH,MEAN_MOTION,ECCENTRICITY,INCLINATION,RA_OF_ASC_NODE,ARG_OF_PERICENTER,MEAN_ANOMALY,BSTAR,MEAN_MOTION_DOT,MEAN_MOTION_DDOT,TLE_LINE0,TLE_LINE1,TLE_LINE2,SEMIMAJOR_AXIS,PERIOD,APOGEE,PERIGEE,DECAYED
51141.0,STARLINK-3179,PAYLOAD,2024-04-06 00:39:03,15.08846725,0.000109,53.2166,213.4966,91.7382,268.3735,7.7897e-05,9.52e-06,0.0,0 STARLINK-3179,1 51141U 22005AP  24097.02712056  .00000952  00000-0  77897-4 0  9994,2 51141  53.2166 213.4966 0001090  91.7382 268.3735 15.08846725122665,6917.86,95.437,540.479,538.971,0.0
51141.0,STARLINK-3179,PAYLOAD,2024-04-06 16:32:55,15.08837106,0.000128,53.2169,210.5249,102.9122,257.2013,-1.9916e-05,-6.05e-06,0.0,0 STARLINK-3179,1 51141U 22005AP  24097.68952642 -.00000605  00000-0 -19916-4 0  9998,2 51141  53.2169 210.5249 0001280 102.9122 257.2013 15.08837106123871,6917.889,95.438,540.64,538.869,0.0
51141.0,STARLINK-3179,PAYLOAD,2024-04-07 06:51:23,15.08838699,0.0001635,53.2159,207.8486,93.1502,266.9677,-0.00017309,-3.042e-05,0.0,0 STARLINK-3179,1 51141U 22005AP  24098.28568805 -.00003042  00000-0 -17309-3 0  9990,2 51141  53.2159 207.8486 0001635  93.1502 266.9677 15.08838699122857,6917.884,95.438,540.88,538.618,0.0
51141.0,STARLINK-3179,PAYLOAD,2024-04-08 13:03:43,15.08839977,0.0001921,53.2086,202.194,80.3107,279.8102,0.00015811,2.229e-05,0.0,0 STARLINK-3179,1 51141U 22005AP  24099.54425250  .00002229  00000-0  15811-3 0  9996,2 51141  53.2086 202.1940 0001921  80.3107 279.8102 15.08839977124157,6917.88,95.438,541.074,538.417,0.0
51141.0,STARLINK-3179,PAYLOAD,2024-04-09 00:11:25,15.08842068,0.0002052,53.2154,200.1162,79.8563,280.266,0.00017587,2.512e-05,0.0,0 STARLINK-3179,1 51141U 22005AP  24100.00793309  .00002512  00000-0  17587-3 0  9990,2 51141  53.2154 200.1162 0002052  79.8563 280.2660 15.08842068123117,6917.874,95.437,541.159,538.32,0.0
51141.0,STARLINK-3179,PAYLOAD,2024-04-09 12:54:33,15.08805982,0.0001544,53.2191,197.7375,86.8879,273.229,-0.00020597,-3.561e-05,0.0,0 STARLINK-3179,1 51141U 22005AP  24100.53788753 -.00003561  00000-0 -20597-3 0  9997,2 51141  53.2191 197.7375 0001544  86.8879 273.2290 15.08805982124305,6917.984,95.44,540.918,538.781,0.0
51141.0,STARLINK-3179,PAYLOAD,2024-04-09 16:05:19,15.08804907,0.0001264,53.2205,197.1416,104.8927,255.2205,-0.00021613,-3.723e-05,0.0,0 STARLINK-3179,1 51141U 22005AP  24100.67037028 -.00003723  00000-0 -21613-3 0  9994,2 51141  53.2205 197.1416 0001264 104.8927 255.2205 15.08804907123216,6917.988,95.44,540.727,538.978,0.0
51141.0,STARLINK-3179,PAYLOAD,2024-04-10 00:02:18,15.09006537,0.0001316,53.2198,195.654,210.2575,149.8342,-0.0028611,-0.0004574,0.0,0 STARLINK-3179,1 51141U 22005AP  24101.00159982 -.00045740  00000-0 -28611-2 0  9995,2 51141  53.2198 195.6540 0001316 210.2575 149.8342 15.09006537124379,6917.371,95.427,540.147,538.326,0.0
51141.0,STARLINK-3179,PAYLOAD,2024-04-10 12:45:22,15.08807417,0.0002427,53.2167,193.2753,92.8386,267.2884,-1.9659e-05,-6.01e-06,0.0,0 STARLINK-3179,1 51141U 22005AP  24101.53150521 -.00000601  00000-0 -19659-4 0  9994,2 51141  53.2167 193.2753 0002427  92.8386 267.2884 15.08807417124453,6917.98,95.44,541.524,538.166,0.0
51141.0,STARLINK-3179,PAYLOAD,2024-04-10 15:56:08,15.08806825,0.0002373,53.2172,192.6808,92.7876,267.3388,-1.8821e-05,-5.88e-06,0.0,0 STARLINK-3179,1 51141U 22005AP  24101.66398874 -.00000588  00000-0 -18821-4 0  9997,2 51141  53.2172 192.6808 0002373  92.7876 267.3388 15.08806825123367,6917.982,95.44,541.488,538.205,0.0
51141.0,STARLINK-3179,PAYLOAD,2024-04-11 12:36:09,15.08836477,0.0001469,53.2162,188.816,92.9082,267.2078,0.00096236,0.0001506,0.0,0 STARLINK-3179,1 51141U 22005AP  24102.52511518  .00015060  00000-0  96236-3 0  9999,2 51141  53.2162 188.8160 0001469  92.9082 267.2078 15.08836477124609,6917.891,95.438,540.772,538.74,0.0
51141.0,STARLINK-3179,PAYLOAD,2024-04-11 22:08:28,15.08866127,0.0001421,53.2172,187.0323,88.3738,271.7417,0.0011051,0.00017356,0.0,0 STARLINK-3179,1 51141U 22005AP  24102.92254777  .00017356  00000-0  11051-2 0  9995,2 51141  53.2172 187.0323 0001421  88.3738 271.7417 15.08866127123552,6917.801,95.436,540.649,538.683,0.0
51141.0,STARLINK-3179,PAYLOAD,2024-04-12 04:29:59,15.0888875,0.0001341,53.2164,185.8421,85.4459,274.6687,0.0013793,0.00021761,0.0,0 STARLINK-3179,1 51141U 22005AP  24103.18749859  .00021761  00000-0  13793-2 0  9994,2 51141  53.2164 185.8421 0001341  85.4459 274.6687 15.08888750124702,6917.731,95.434,540.524,538.669,0.0
51141.0,STARLINK-3179,PAYLOAD,2024-04-12 12:26:54,15.08909381,0.0001353,53.2164,184.3559,82.4666,277.648,0.0015381,0.00024322,0.0,0 STARLINK-3179,1 51141U 22005AP  24103.51868449  .00024322  00000-0  15381-2 0  9999,2 51141  53.2164 184.3559 0001353  82.4666 277.6480 15.08909381123648,6917.668,95.433,540.469,538.597,0.0
51141.0,STARLINK-3179,PAYLOAD,2024-04-13 12:17:39,15.088967,0.0001478,53.2163,179.8946,84.0358,276.0803,0.00073033,0.00011372,0.0,0 STARLINK-3179,1 51141U 22005AP  24104.51225764  .00011372  00000-0  73033-3 0  9997,2 51141  53.2163 179.8946 0001478  84.0358 276.0803 15.08896700124902,6917.707,95.434,540.595,538.55,0.0
51141.0,STARLINK-3179,PAYLOAD,2024-04-14 12:08:25,15.08852507,0.0001272,53.2157,175.4336,110.3039,249.809,0.00061673,9.544e-05,0.0,0 STARLINK-3179,1 51141U 22005AP  24105.50585209  .00009544  00000-0  61673-3 0  9995,2 51141  53.2157 175.4336 0001272 110.3039 249.8090 15.08852507125051,6917.842,95.437,540.587,538.827,0.0
51141.0,STARLINK-3179,PAYLOAD,2024-04-15 11:59:12,15.0885228,0.000183,53.2168,170.9737,61.6153,298.5024,0.00022899,3.359e-05,0.0,0 STARLINK-3179,1 51141U 22005AP  24106.49945306  .00003359  00000-0  22899-3 0  9997,2 51141  53.2168 170.9737 0001830  61.6153 298.5024 15.08852280125206,6917.843,95.437,540.974,538.442,0.0
51141.0,STARLINK-3179,PAYLOAD,2024-04-15 13:34:35,15.08856444,0.0001811,53.2173,170.6707,63.9716,296.1463,0.00022173,3.244e-05,0.0,0 STARLINK-3179,1 51141U 22005AP  24106.56569042  .00003244  00000-0  22173-3 0  9992,2 51141  53.2173 170.6707 0001811  63.9716 296.1463 15.08856444124100,6917.83,95.437,540.948,538.442,0.0
51141.0,STARLINK-3179,PAYLOAD,2024-04-16 03:53:04,15.08843726,0.0001727,53.2157,168.0013,83.2187,276.9001,0.00015374,2.16e-05,0.0,0 STARLINK-3179,1 51141U 22005AP  24107.16185471  .00002160  00000-0  15374-3 0  9990,2 51141  53.2157 168.0013 0001727  83.2187 276.9001 15.08843726125302,6917.869,95.437,540.929,538.539,0.0
51141.0,STARLINK-3179,PAYLOAD,2024-04-16 10:14:36,15.08848085,0.0001473,53.2151,166.8093,85.2227,274.8934,0.00022434,3.285e-05,0.0,0 STARLINK-3179,1 51141U 22005AP  24107.42681219  .00003285  00000-0  22434-3 0  9994,2 51141  53.2151 166.8093 0001473  85.2227 274.8934 15.08848085124231,6917.856,95.437,540.74,538.702,0.0
51141.0,STARLINK-3179,PAYLOAD,2024-04-17 10:05:23,15.08855189,0.000171,53.2173,162.3501,99.4304,260.6882,0.00021473,3.132e-05,0.0,0 STARLINK-3179,1 51141U 22005AP  24108.42040619  .00003132  00000-0  21473-3 0  9991,2 51141  53.2173 162.3501 0001710  99.4304 260.6882 15.08855189125494,6917.834,95.437,540.882,538.516,0.0
51141.0,STARLINK-3179,PAYLOAD,2024-04-18 09:56:11,15.08828142,0.0001523,53.2164,157.8889,102.381,257.7353,-8.1438e-05,-1.583e-05,0.0,0 STARLINK-3179,1 51141U 22005AP  24109.41402208 -.00001583  00000-0 -81438-4 0  9995,2 51141  53.2164 157.8889 0001523 102.3810 257.7353 15.08828142125646,6917.917,95.438,540.835,538.728,0.0
51141.0,STARLINK-3179,PAYLOAD,2024-04-19 09:46:59,15.08830633,0.0001358,53.2161,153.4234,94.836,265.2788,5.8535e-05,6.44e-06,0.0,0 STARLINK-3179,1 51141U 22005AP  24110.40762981  .00000644  00000-0  58535-4 0  9990,2 51141  53.2161 153.4234 0001358  94.8360 265.2788 15.08830633124687,6917.909,95.438,540.713,538.835,0.0
51141.0,STARLINK-3179,PAYLOAD,2024-04-20 01:40:50,15.08840218,0.0001313,53.2162,150.4501,83.5614,276.5528,0.00037879,5.746e-05,0.0,0 STARLINK-3179,1 51141U 22005AP  24111.07003150  .00005746  00000-0  37879-3 0  9995,2 51141  53.2162 150.4501 0001313  83.5614 276.5528 15.08840218125891,6917.88,95.438,540.653,538.836,0.0
51141.0,STARLINK-3179,PAYLOAD,2024-04-20 09:37:45,15.08868766,0.0001493,53.2172,148.9701,97.0039,263.1123,0.0009466,0.00014821,0.0,0 STARLINK-3179,1 51141U 22005AP  24111.40122234  .00014821  00000-0  94660-3 0  9992,2 51141  53.2172 148.9701 0001493  97.0039 263.1123 15.08868766125943,6917.792,95.436,540.69,538.625,0.0
51141.0,STARLINK-3179,PAYLOAD,2024-04-21 03:06:59,15.08867078,0.0001548,53.2172,145.6999,94.0105,266.1064,0.00036493,5.529e-05,0.0,0 STARLINK-3179,1 51141U 22005AP  24112.12985384  .00005529  00000-0  36493-3 0  9990,2 51141  53.2172 145.6999 0001548  94.0105 266.1064 15.08867078126053,6917.798,95.436,540.733,538.592,0.0
51141.0,STARLINK-3179,PAYLOAD,2024-04-21 11:03:54,15.08868906,0.0001739,53.2169,144.2105,93.0479,267.0712,0.00036807,5.579e-05,0.0,0 STARLINK-3179,1 51141U 22005AP  24112.46104826  .00005579  00000-0  36807-3 0  9995,2 51141  53.2169 144.2105 0001739  93.0479 267.0712 15.08868906124990,6917.792,95.436,540.86,538.454,0.0
51141.0,STARLINK-3179,PAYLOAD,2024-04-22 10:54:42,15.08833181,0.0001587,53.2157,139.7498,103.4022,256.7147,5.8353e-05,6.41e-06,0.0,0 STARLINK-3179,1 51141U 22005AP  24113.45465661  .00000641  00000-0  58353-4 0  9998,2 51141  53.2157 139.7498 0001587 103.4022 256.7147 15.08833181126257,6917.901,95.438,540.864,538.668,0.0
51141.0,STARLINK-3179,PAYLOAD,2024-04-23 01:13:11,15.08827968,0.0001697,53.2154,137.0765,96.8383,263.2802,0.00011374,1.522e-05,0.0,0 STARLINK-3179,1 51141U 22005AP  24114.05082495  .00001522  00000-0  11374-3 0  9995,2 51141  53.2154 137.0765 0001697  96.8383 263.2802 15.08827968126346,6917.917,95.438,540.956,538.608,0.0
51141.0,STARLINK-3179,PAYLOAD,2024-04-23 09:10:07,15.08833382,0.0001816,53.216,135.5882,90.6036,269.5164,7.486e-05,9.03e-06,0.0,0 STARLINK-3179,1 51141U 22005AP  24114.38202719  .00000903  00000-0  74860-4 0  9996,2 51141  53.2160 135.5882 0001816  90.6036 269.5164 15.08833382125285,6917.901,95.438,541.022,538.509,0.0
